[
  {
    "name": "STARLINK-35704",
    "tle1": "1 66221U 25244R   26079.56503574  .00035530  00000+0  12057-2 0  9995",
    "tle2": "2 66221  53.1574 179.4619 0001016  76.6084 283.5030 15.30208983 23320"
  },
  {
    "name": "STARLINK-35666",
    "tle1": "1 66222U 25244S   26079.56819904  .00022739  00000+0  77720-3 0  9999",
    "tle2": "2 66222  53.1572 179.4791 0001202  74.5133 285.6000 15.30213411 23321"
  },
  {
    "name": "STARLINK-35664",
    "tle1": "1 66223U 25244T   26079.44390151  .00015347  00000+0  52902-3 0  9997",
    "tle2": "2 66223  53.1583 180.1245 0001081  77.6273 282.4849 15.30210851 23300"
  },
  {
    "name": "STARLINK-35733",
    "tle1": "1 66224U 25244U   26079.26168144  .00022402  00000+0  76587-3 0  9998",
    "tle2": "2 66224  53.1551 181.1208 0001759  89.0973 271.0229 15.30213868 23275"
  },
  {
    "name": "STARLINK-35734",
    "tle1": "1 66225U 25244V   26079.44073312  .00011458  00000+0  39833-3 0  9993",
    "tle2": "2 66225  53.1560 180.1075 0000974  73.9059 286.2049 15.30203429 23306"
  },
  {
    "name": "STARLINK-34466",
    "tle1": "1 66226U 25244W   26079.42490673  .00017766  00000+0  61070-3 0  9991",
    "tle2": "2 66226  53.1546 180.0066 0001130  76.4056 283.7071 15.30189872 23302"
  },
  {
    "name": "STARLINK-34882",
    "tle1": "1 66227U 25244X   26079.55236719  .00017346  00000+0  59618-3 0  9994",
    "tle2": "2 66227  53.1596 179.3810 0001034  82.3497 277.7621 15.30211707 23323"
  },
  {
    "name": "STARLINK-35731",
    "tle1": "1 66228U 25244Y   26079.54920834  .00034267  00000+0  11628-2 0  9991",
    "tle2": "2 66228  53.1585 179.3607 0001130  88.2738 271.8393 15.30227649 23329"
  },
  {
    "name": "STARLINK-35758",
    "tle1": "1 66229U 25244Z   26079.54709249  .00019207  00000+0  65865-3 0  9997",
    "tle2": "2 66229  53.1581 179.3477 0001229  82.4061 277.7079 15.30214892 23327"
  },
  {
    "name": "STARLINK-35736",
    "tle1": "1 66230U 25244AA  26079.43335430  .00043585  00000+0  14745-2 0  9990",
    "tle2": "2 66230  53.1583 180.0581 0001298  68.1566 291.9573 15.30212459 23305"
  },
  {
    "name": "STARLINK-35735",
    "tle1": "1 66231U 25244AB  26079.54075767  .00012321  00000+0  42740-3 0  9998",
    "tle2": "2 66231  53.1606 179.3068 0000947  72.1870 287.9234 15.30201024 23323"
  },
  {
    "name": "STARLINK-35753",
    "tle1": "1 66232U 25244AC  26079.26379517  .00012535  00000+0  43481-3 0  9998",
    "tle2": "2 66232  53.1613 181.1304 0000688 231.1857 128.9082 15.30184483 23278"
  },
  {
    "name": "STARLINK-35626",
    "tle1": "1 66233U 25244AD  26079.26060929  .00018584  00000+0  63751-3 0  9995",
    "tle2": "2 66233  53.1572 181.1108 0001288  95.7709 264.3439 15.30226045 23274"
  },
  {
    "name": "STARLINK-35537",
    "tle1": "1 66234U 25245A   26079.43300742  .00002521  00000+0  97217-4 0  9995",
    "tle2": "2 66234  53.1563 233.8333 0000661  81.1574 278.9502 15.30191190 22906"
  },
  {
    "name": "STARLINK-35541",
    "tle1": "1 66235U 25245B   26079.42985088  .00016716  00000+0  57489-3 0  9994",
    "tle2": "2 66235  53.1588 233.8148 0001473  65.3553 294.7601 15.30220769 22856"
  },
  {
    "name": "STARLINK-35454",
    "tle1": "1 66236U 25245C   26079.46465487  .00001117  00000+0  49827-4 0  9992",
    "tle2": "2 66236  53.1553 234.0314 0000749  20.4480 339.6551 15.30198823 22749"
  }
]