[{"OBJECT_NAME":"STARLINK-35704","OBJECT_ID":"2025-244R","EPOCH":"2026-03-20T13:33:39.087936","MEAN_MOTION":15.30208983,"ECCENTRICITY":0.00010169,"INCLINATION":53.1574,"RA_OF_ASC_NODE":179.4619,"ARG_OF_PERICENTER":76.6084,"MEAN_ANOMALY":283.503,"EPHEMERIS_TYPE":0,"CLASSIFICATION_TYPE":"U","NORAD_CAT_ID":66221,"ELEMENT_SET_NO":999,"REV_AT_EPOCH":2332,"BSTAR":0.0012056746,"MEAN_MOTION_DOT":0.0003553,"MEAN_MOTION_DDOT":0},{"OBJECT_NAME":"STARLINK-35666","OBJECT_ID":"2025-244S","EPOCH":"2026-03-20T13:38:12.397056","MEAN_MOTION":15.30213411,"ECCENTRICITY":0.00012024,"INCLINATION":53.1572,"RA_OF_ASC_NODE":179.4791,"ARG_OF_PERICENTER":74.5133,"MEAN_ANOMALY":285.6,"EPHEMERIS_TYPE":0,"CLASSIFICATION_TYPE":"U","NORAD_CAT_ID":66222,"ELEMENT_SET_NO":999,"REV_AT_EPOCH":2332,"BSTAR":0.00077720443,"MEAN_MOTION_DOT":0.00022739,"MEAN_MOTION_DDOT":0},{"OBJECT_NAME":"STARLINK-35664","OBJECT_ID":"2025-244T","EPOCH":"2026-03-20T10:39:13.090464","MEAN_MOTION":15.30210851,"ECCENTRICITY":0.00010815,"INCLINATION":53.1583,"RA_OF_ASC_NODE":180.1245,"ARG_OF_PERICENTER":77.6273,"MEAN_ANOMALY":282.4849,"EPHEMERIS_TYPE":0,"CLASSIFICATION_TYPE":"U","NORAD_CAT_ID":66223,"ELEMENT_SET_NO":999,"REV_AT_EPOCH":2330,"BSTAR":0.00052902434,"MEAN_MOTION_DOT":0.00015347,"MEAN_MOTION_DDOT":0},{"OBJECT_NAME":"STARLINK-35733","OBJECT_ID":"2025-244U","EPOCH":"2026-03-20T06:16:49.276416","MEAN_MOTION":15.30213868,"ECCENTRICITY":0.0001759,"INCLINATION":53.1551,"RA_OF_ASC_NODE":181.1208,"ARG_OF_PERICENTER":89.0973,"MEAN_ANOMALY":271.0229,"EPHEMERIS_TYPE":0,"CLASSIFICATION_TYPE":"U","NORAD_CAT_ID":66224,"ELEMENT_SET_NO":999,"REV_AT_EPOCH":2327,"BSTAR":0.00076587,"MEAN_MOTION_DOT":0.00022402,"MEAN_MOTION_DDOT":0},{"OBJECT_NAME":"STARLINK-35734","OBJECT_ID":"2025-244V","EPOCH":"2026-03-20T10:34:39.341568","MEAN_MOTION":15.30203429,"ECCENTRICITY":9.742e-5,"INCLINATION":53.156,"RA_OF_ASC_NODE":180.1075,"ARG_OF_PERICENTER":73.9059,"MEAN_ANOMALY":286.2049,"EPHEMERIS_TYPE":0,"CLASSIFICATION_TYPE":"U","NORAD_CAT_ID":66225,"ELEMENT_SET_NO":999,"REV_AT_EPOCH":2330,"BSTAR":0.00039833462,"MEAN_MOTION_DOT":0.00011458,"MEAN_MOTION_DDOT":0},{"OBJECT_NAME":"STARLINK-34466","OBJECT_ID":"2025-244W","EPOCH":"2026-03-20T10:11:51.941472","MEAN_MOTION":15.30189872,"ECCENTRICITY":0.00011301,"INCLINATION":53.1546,"RA_OF_ASC_NODE":180.0066,"ARG_OF_PERICENTER":76.4056,"MEAN_ANOMALY":283.7071,"EPHEMERIS_TYPE":0,"CLASSIFICATION_TYPE":"U","NORAD_CAT_ID":66226,"ELEMENT_SET_NO":999,"REV_AT_EPOCH":2330,"BSTAR":0.00061069576,"MEAN_MOTION_DOT":0.00017766,"MEAN_MOTION_DDOT":0},{"OBJECT_NAME":"STARLINK-34882","OBJECT_ID":"2025-244X","EPOCH":"2026-03-20T13:15:24.525216","MEAN_MOTION":15.30211707,"ECCENTRICITY":0.00010347,"INCLINATION":53.1596,"RA_OF_ASC_NODE":179.381,"ARG_OF_PERICENTER":82.3497,"MEAN_ANOMALY":277.7621,"EPHEMERIS_TYPE":0,"CLASSIFICATION_TYPE":"U","NORAD_CAT_ID":66227,"ELEMENT_SET_NO":999,"REV_AT_EPOCH":2332,"BSTAR":0.00059617972,"MEAN_MOTION_DOT":0.00017346,"MEAN_MOTION_DDOT":0},{"OBJECT_NAME":"STARLINK-35731","OBJECT_ID":"2025-244Y","EPOCH":"2026-03-20T13:10:51.600576","MEAN_MOTION":15.30227649,"ECCENTRICITY":0.00011303,"INCLINATION":53.1585,"RA_OF_ASC_NODE":179.3607,"ARG_OF_PERICENTER":88.2738,"MEAN_ANOMALY":271.8393,"EPHEMERIS_TYPE":0,"CLASSIFICATION_TYPE":"U","NORAD_CAT_ID":66228,"ELEMENT_SET_NO":999,"REV_AT_EPOCH":2332,"BSTAR":0.0011627731,"MEAN_MOTION_DOT":0.00034267,"MEAN_MOTION_DDOT":0},{"OBJECT_NAME":"STARLINK-35758","OBJECT_ID":"2025-244Z","EPOCH":"2026-03-20T13:07:48.791136","MEAN_MOTION":15.30214892,"ECCENTRICITY":0.00012294,"INCLINATION":53.1581,"RA_OF_ASC_NODE":179.3477,"ARG_OF_PERICENTER":82.4061,"MEAN_ANOMALY":277.7079,"EPHEMERIS_TYPE":0,"CLASSIFICATION_TYPE":"U","NORAD_CAT_ID":66229,"ELEMENT_SET_NO":999,"REV_AT_EPOCH":2332,"BSTAR":0.00065864593,"MEAN_MOTION_DOT":0.00019207,"MEAN_MOTION_DDOT":0},{"OBJECT_NAME":"STARLINK-35736","OBJECT_ID":"2025-244AA","EPOCH":"2026-03-20T10:24:01.811520","MEAN_MOTION":15.30212459,"ECCENTRICITY":0.00012982,"INCLINATION":53.1583,"RA_OF_ASC_NODE":180.0581,"ARG_OF_PERICENTER":68.1566,"MEAN_ANOMALY":291.9573,"EPHEMERIS_TYPE":0,"CLASSIFICATION_TYPE":"U","NORAD_CAT_ID":66230,"ELEMENT_SET_NO":999,"REV_AT_EPOCH":2330,"BSTAR":0.0014745259,"MEAN_MOTION_DOT":0.00043585,"MEAN_MOTION_DDOT":0},{"OBJECT_NAME":"STARLINK-35735","OBJECT_ID":"2025-244AB","EPOCH":"2026-03-20T12:58:41.462688","MEAN_MOTION":15.30201024,"ECCENTRICITY":9.471e-5,"INCLINATION":53.1606,"RA_OF_ASC_NODE":179.3068,"ARG_OF_PERICENTER":72.187,"MEAN_ANOMALY":287.9234,"EPHEMERIS_TYPE":0,"CLASSIFICATION_TYPE":"U","NORAD_CAT_ID":66231,"ELEMENT_SET_NO":999,"REV_AT_EPOCH":2332,"BSTAR":0.00042740295,"MEAN_MOTION_DOT":0.00012321,"MEAN_MOTION_DDOT":0},{"OBJECT_NAME":"STARLINK-35753","OBJECT_ID":"2025-244AC","EPOCH":"2026-03-20T06:19:51.902688","MEAN_MOTION":15.30184483,"ECCENTRICITY":6.88e-5,"INCLINATION":53.1613,"RA_OF_ASC_NODE":181.1304,"ARG_OF_PERICENTER":231.1857,"MEAN_ANOMALY":128.9082,"EPHEMERIS_TYPE":0,"CLASSIFICATION_TYPE":"U","NORAD_CAT_ID":66232,"ELEMENT_SET_NO":999,"REV_AT_EPOCH":2327,"BSTAR":0.00043481,"MEAN_MOTION_DOT":0.00012535,"MEAN_MOTION_DDOT":0},{"OBJECT_NAME":"STARLINK-35626","OBJECT_ID":"2025-244AD","EPOCH":"2026-03-20T06:15:16.642656","MEAN_MOTION":15.30226045,"ECCENTRICITY":0.0001288,"INCLINATION":53.1572,"RA_OF_ASC_NODE":181.1108,"ARG_OF_PERICENTER":95.7709,"MEAN_ANOMALY":264.3439,"EPHEMERIS_TYPE":0,"CLASSIFICATION_TYPE":"U","NORAD_CAT_ID":66233,"ELEMENT_SET_NO":999,"REV_AT_EPOCH":2327,"BSTAR":0.00063751,"MEAN_MOTION_DOT":0.00018584,"MEAN_MOTION_DDOT":0},{"OBJECT_NAME":"STARLINK-35537","OBJECT_ID":"2025-245A","EPOCH":"2026-03-20T10:23:31.841088","MEAN_MOTION":15.3019119,"ECCENTRICITY":6.61e-5,"INCLINATION":53.1563,"RA_OF_ASC_NODE":233.8333,"ARG_OF_PERICENTER":81.1574,"MEAN_ANOMALY":278.9502,"EPHEMERIS_TYPE":0,"CLASSIFICATION_TYPE":"U","NORAD_CAT_ID":66234,"ELEMENT_SET_NO":999,"REV_AT_EPOCH":2290,"BSTAR":9.7216741e-5,"MEAN_MOTION_DOT":2.521e-5,"MEAN_MOTION_DDOT":0},{"OBJECT_NAME":"STARLINK-35541","OBJECT_ID":"2025-245B","EPOCH":"2026-03-20T10:18:59.116032","MEAN_MOTION":15.30220769,"ECCENTRICITY":0.00014732,"INCLINATION":53.1588,"RA_OF_ASC_NODE":233.8148,"ARG_OF_PERICENTER":65.3553,"MEAN_ANOMALY":294.7601,"EPHEMERIS_TYPE":0,"CLASSIFICATION_TYPE":"U","NORAD_CAT_ID":66235,"ELEMENT_SET_NO":999,"REV_AT_EPOCH":2285,"BSTAR":0.00057488532,"MEAN_MOTION_DOT":0.00016716,"MEAN_MOTION_DDOT":0},{"OBJECT_NAME":"STARLINK-35454","OBJECT_ID":"2025-245C","EPOCH":"2026-03-20T11:09:06.180768","MEAN_MOTION":15.30198823,"ECCENTRICITY":7.492e-5,"INCLINATION":53.1553,"RA_OF_ASC_NODE":234.0314,"ARG_OF_PERICENTER":20.448,"MEAN_ANOMALY":339.6551,"EPHEMERIS_TYPE":0,"CLASSIFICATION_TYPE":"U","NORAD_CAT_ID":66236,"ELEMENT_SET_NO":999,"REV_AT_EPOCH":2274,"BSTAR":4.9826792e-5,"MEAN_MOTION_DOT":1.117e-5,"MEAN_MOTION_DDOT":0}]
